{"type": "FeatureCollection", "features": [ {"type": "Feature", "properties": {"norad_id": 35650, "name": "COSMOS 2251 DEB", "group": "cosmos-2251-debris", "lat": -46.68457171940637, "lon": -145.5300420288336, "alt_km": 634.1007634680682, "timestamp": "2025-12-13T18:50:04.826845+00:00", "meta": {"OBJECT_NAME": "COSMOS 2251 DEB", "OBJECT_ID": "1993-036ANR", "EPOCH": "2025-12-13T08:08:49.721568", "MEAN_MOTION": 14.83655892, "ECCENTRICITY": 0.00146511, "INCLINATION": 74.0464, "RA_OF_ASC_NODE": 17.6894, "ARG_OF_PERICENTER": 64.9379, "MEAN_ANOMALY": 306.6077, "EPHEMERIS_TYPE": 0, "CLASSIFICATION_TYPE": "U", "NORAD_CAT_ID": 35650, "ELEMENT_SET_NO": 999, "REV_AT_EPOCH": 87643, "BSTAR": 0.0027926466, "MEAN_MOTION_DOT": 0.00023149, "MEAN_MOTION_DDOT": 0}, "tle": {"line1": "1 35650U 93036ANR 25347.33946437  .00023149  00000+0  27926-2 0  9996", "line2": "2 35650  74.0464  17.6894 0014651  64.9379 306.6077 14.83655892876434"}}, "geometry": {"type": "Point", "coordinates": [-145.5300420288336, -46.68457171940637]}}, {"type": "Feature", "properties": {"norad_id": 35660, "name": "COSMOS 2251 DEB", "group": "cosmos-2251-debris", "lat": 37.622432119493084, "lon": 144.01099462067108, "alt_km": 729.2492032016135, "timestamp": "2025-12-13T18:50:04.826856+00:00", "meta": {"OBJECT_NAME": "COSMOS 2251 DEB", "OBJECT_ID": "1993-036APB", "EPOCH": "2025-12-13T02:38:42.179424", "MEAN_MOTION": 14.49930822, "ECCENTRICITY": 0.00184394, "INCLINATION": 74.0397, "RA_OF_ASC_NODE": 132.5343, "ARG_OF_PERICENTER": 281.2013, "MEAN_ANOMALY": 198.4708, "EPHEMERIS_TYPE": 0, "CLASSIFICATION_TYPE": "U", "NORAD_CAT_ID": 35660, "ELEMENT_SET_NO": 999, "REV_AT_EPOCH": 65876, "BSTAR": 0.00075946704, "MEAN_MOTION_DOT": 2.917e-05, "MEAN_MOTION_DDOT": 0}, "tle": {"line1": "1 35660U 93036APB 25347.11021041  .00002917  00000+0  75947-3 0  9995", "line2": "2 35660  74.0397 132.5343 0018439 281.2013 198.4708 14.49930822658766"}}, "geometry": {"type": "Point", "coordinates": [144.01099462067108, 37.622432119493084]}}, {"type": "Feature", "properties": {"norad_id": 35661, "name": "COSMOS 2251 DEB", "group": "cosmos-2251-debris", "lat": 5.712496052627443, "lon": -103.99620686821632, "alt_km": 549.6114857374678, "timestamp": "2025-12-13T18:50:04.826866+00:00", "meta": {"OBJECT_NAME": "COSMOS 2251 DEB", "OBJECT_ID": "1993-036APC", "EPOCH": "2025-12-13T00:17:15.706176", "MEAN_MOTION": 14.86576053, "ECCENTRICITY": 0.00878892, "INCLINATION": 74.0136, "RA_OF_ASC_NODE": 79.1868, "ARG_OF_PERICENTER": 183.3454, "MEAN_ANOMALY": 176.7151, "EPHEMERIS_TYPE": 0, "CLASSIFICATION_TYPE": "U", "NORAD_CAT_ID": 35661, "ELEMENT_SET_NO": 999, "REV_AT_EPOCH": 87872, "BSTAR": 0.0013832981, "MEAN_MOTION_DOT": 0.00013144, "MEAN_MOTION_DDOT": 0}, "tle": {"line1": "1 35661U 93036APC 25347.01198734  .00013144  00000+0  13833-2 0  9998", "line2": "2 35661  74.0136  79.1868 0087889 183.3454 176.7151 14.86576053878726"}}, "geometry": {"type": "Point", "coordinates": [-103.99620686821632, 5.712496052627443]}}, {"type": "Feature", "properties": {"norad_id": 35663, "name": "COSMOS 2251 DEB", "group": "cosmos-2251-debris", "lat": -18.100879392750567, "lon": 117.27517892848897, "alt_km": 683.1112452423558, "timestamp": "2025-12-13T18:50:04.826877+00:00", "meta": {"OBJECT_NAME": "COSMOS 2251 DEB", "OBJECT_ID": "1993-036APE", "EPOCH": "2025-12-13T02:32:21.539904", "MEAN_MOTION": 14.65684168, "ECCENTRICITY": 0.00063461, "INCLINATION": 74.0174, "RA_OF_ASC_NODE": 123.959, "ARG_OF_PERICENTER": 198.7091, "MEAN_ANOMALY": 161.3846, "EPHEMERIS_TYPE": 0, "CLASSIFICATION_TYPE": "U", "NORAD_CAT_ID": 35663, "ELEMENT_SET_NO": 999, "REV_AT_EPOCH": 73387, "BSTAR": 0.0025042609, "MEAN_MOTION_DOT": 0.00013628, "MEAN_MOTION_DDOT": 0}, "tle": {"line1": "1 35663U 93036APE 25347.10580486  .00013628  00000+0  25043-2 0  9992", "line2": "2 35663  74.0174 123.9590 0006346 198.7091 161.3846 14.65684168733877"}}, "geometry": {"type": "Point", "coordinates": [117.27517892848897, -18.100879392750567]}}, {"type": "Feature", "properties": {"norad_id": 35667, "name": "COSMOS 2251 DEB", "group": "cosmos-2251-debris", "lat": 7.851810635705217, "lon": 140.37551935062788, "alt_km": 708.3529075388669, "timestamp": "2025-12-13T18:50:04.826887+00:00", "meta": {"OBJECT_NAME": "COSMOS 2251 DEB", "OBJECT_ID": "1993-036APJ", "EPOCH": "2025-12-12T16:29:07.800576", "MEAN_MOTION": 14.60019536, "ECCENTRICITY": 0.00197659, "INCLINATION": 74.055, "RA_OF_ASC_NODE": 140.2077, "ARG_OF_PERICENTER": 201.2373, "MEAN_ANOMALY": 158.7974, "EPHEMERIS_TYPE": 0, "CLASSIFICATION_TYPE": "U", "NORAD_CAT_ID": 35667, "ELEMENT_SET_NO": 999, "REV_AT_EPOCH": 70802, "BSTAR": 0.0016940169, "MEAN_MOTION_DOT": 8.135e-05, "MEAN_MOTION_DDOT": 0}, "tle": {"line1": "1 35667U 93036APJ 25346.68689584  .00008135  00000+0  16940-2 0  9990", "line2": "2 35667  74.0550 140.2077 0019765 201.2373 158.7974 14.60019536708020"}}, "geometry": {"type": "Point", "coordinates": [140.37551935062788, 7.851810635705217]}}, {"type": "Feature", "properties": {"norad_id": 35668, "name": "COSMOS 2251 DEB", "group": "cosmos-2251-debris", "lat": 40.65480266167809, "lon": 24.295722449557797, "alt_km": 735.1512856975032, "timestamp": "2025-12-13T18:50:04.826897+00:00", "meta": {"OBJECT_NAME": "COSMOS 2251 DEB", "OBJECT_ID": "1993-036APK", "EPOCH": "2025-12-10T09:50:46.743936", "MEAN_MOTION": 14.63977041, "ECCENTRICITY": 0.00831886, "INCLINATION": 74.0449, "RA_OF_ASC_NODE": 224.9926, "ARG_OF_PERICENTER": 330.6481, "MEAN_ANOMALY": 29.0026, "EPHEMERIS_TYPE": 0, "CLASSIFICATION_TYPE": "U", "NORAD_CAT_ID": 35668, "ELEMENT_SET_NO": 999, "REV_AT_EPOCH": 87613, "BSTAR": 0.00039699898, "MEAN_MOTION_DOT": 2.154e-05, "MEAN_MOTION_DDOT": 0}, "tle": {"line1": "1 35668U 93036APK 25344.41026324  .00002154  00000+0  39700-3 0  9992", "line2": "2 35668  74.0449 224.9926 0083188 330.6481  29.0026 14.63977041876131"}}, "geometry": {"type": "Point", "coordinates": [24.295722449557797, 40.65480266167809]}}, {"type": "Feature", "properties": {"norad_id": 35669, "name": "COSMOS 2251 DEB", "group": "cosmos-2251-debris", "lat": 68.22045001118374, "lon": -155.87439791590865, "alt_km": 1317.7785721255996, "timestamp": "2025-12-13T18:50:04.826908+00:00", "meta": {"OBJECT_NAME": "COSMOS 2251 DEB", "OBJECT_ID": "1993-036APL", "EPOCH": "2025-12-10T17:55:05.054592", "MEAN_MOTION": 13.57151778, "ECCENTRICITY": 0.03880721, "INCLINATION": 73.8635, "RA_OF_ASC_NODE": 162.6479, "ARG_OF_PERICENTER": 274.7966, "MEAN_ANOMALY": 80.8943, "EPHEMERIS_TYPE": 0, "CLASSIFICATION_TYPE": "U", "NORAD_CAT_ID": 35669, "ELEMENT_SET_NO": 999, "REV_AT_EPOCH": 60762, "BSTAR": 0.0012765304, "MEAN_MOTION_DOT": 1.459e-05, "MEAN_MOTION_DDOT": 0}, "tle": {"line1": "1 35669U 93036APL 25344.74658628  .00001459  00000+0  12765-2 0  9995", "line2": "2 35669  73.8635 162.6479 0388072 274.7966  80.8943 13.57151778607625"}}, "geometry": {"type": "Point", "coordinates": [-155.87439791590865, 68.22045001118374]}}, {"type": "Feature", "properties": {"norad_id": 35670, "name": "COSMOS 2251 DEB", "group": "cosmos-2251-debris", "lat": 2.4849726305710615, "lon": -118.34669727430496, "alt_km": 611.3747640138554, "timestamp": "2025-12-13T18:50:04.826918+00:00", "meta": {"OBJECT_NAME": "COSMOS 2251 DEB", "OBJECT_ID": "1993-036APM", "EPOCH": "2025-12-08T12:40:44.894496", "MEAN_MOTION": 14.93746131, "ECCENTRICITY": 0.00374415, "INCLINATION": 73.8955, "RA_OF_ASC_NODE": 73.039, "ARG_OF_PERICENTER": 35.0218, "MEAN_ANOMALY": 325.3416, "EPHEMERIS_TYPE": 0, "CLASSIFICATION_TYPE": "U", "NORAD_CAT_ID": 35670, "ELEMENT_SET_NO": 999, "REV_AT_EPOCH": 87664, "BSTAR": 0.0018203888, "MEAN_MOTION_DOT": 0.00019569, "MEAN_MOTION_DDOT": 0}, "tle": {"line1": "1 35670U 93036APM 25342.52829739  .00019569  00000+0  18204-2 0  9999", "line2": "2 35670  73.8955  73.0390 0037441  35.0218 325.3416 14.93746131876644"}}, "geometry": {"type": "Point", "coordinates": [-118.34669727430496, 2.4849726305710615]}}, {"type": "Feature", "properties": {"norad_id": 35671, "name": "COSMOS 2251 DEB", "group": "cosmos-2251-debris", "lat": 73.12248526204917, "lon": 148.1992936132969, "alt_km": 752.3383117234407, "timestamp": "2025-12-13T18:50:04.826929+00:00", "meta": {"OBJECT_NAME": "COSMOS 2251 DEB", "OBJECT_ID": "1993-036APN", "EPOCH": "2025-12-12T06:07:34.704192", "MEAN_MOTION": 14.48347657, "ECCENTRICITY": 0.00414664, "INCLINATION": 74.018, "RA_OF_ASC_NODE": 80.2233, "ARG_OF_PERICENTER": 254.3311, "MEAN_ANOMALY": 138.579, "EPHEMERIS_TYPE": 0, "CLASSIFICATION_TYPE": "U", "NORAD_CAT_ID": 35671, "ELEMENT_SET_NO": 999, "REV_AT_EPOCH": 86756, "BSTAR": 0.00036575096, "MEAN_MOTION_DOT": 1.355e-05, "MEAN_MOTION_DDOT": 0}, "tle": {"line1": "1 35671U 93036APN 25346.25526278  .00001355  00000+0  36575-3 0  9992", "line2": "2 35671  74.0180  80.2233 0041466 254.3311 138.5790 14.48347657867566"}}, "geometry": {"type": "Point", "coordinates": [148.1992936132969, 73.12248526204917]}}, {"type": "Feature", "properties": {"norad_id": 35674, "name": "COSMOS 2251 DEB", "group": "cosmos-2251-debris", "lat": -17.217309055944273, "lon": -50.544061417303226, "alt_km": 651.2023351398911, "timestamp": "2025-12-13T18:50:04.826940+00:00", "meta": {"OBJECT_NAME": "COSMOS 2251 DEB", "OBJECT_ID": "1993-036APR", "EPOCH": "2025-12-13T07:21:29.670624", "MEAN_MOTION": 14.54226359, "ECCENTRICITY": 0.00960278, "INCLINATION": 74.06, "RA_OF_ASC_NODE": 315.4395, "ARG_OF_PERICENTER": 0.0883, "MEAN_ANOMALY": 0.0279, "EPHEMERIS_TYPE": 0, "CLASSIFICATION_TYPE": "U", "NORAD_CAT_ID": 35674, "ELEMENT_SET_NO": 999, "REV_AT_EPOCH": 86119, "BSTAR": 0.0032808477, "MEAN_MOTION_DOT": 0.0001478, "MEAN_MOTION_DDOT": 0}, "tle": {"line1": "1 35674U 93036APR 25347.30659341  .00014780  00000+0  32808-2 0  9990", "line2": "2 35674  74.0600 315.4395 0096027   0.0883   0.0279 14.54226359861191"}}, "geometry": {"type": "Point", "coordinates": [-50.544061417303226, -17.217309055944273]}}]}